{
  "type": "FeatureCollection",
  "name": "islamabad_sectors",
  "crs": {"type": "name", "properties": {"name": "EPSG:4326"}},
  "features": [
    {"type": "Feature", "properties": {"id": "F-6", "name": "F-6", "population": 38000, "income_decile": 8, "elderly_pct": 0.11, "category": "residential_affluent"}, "geometry": {"type": "Polygon", "coordinates": [[[73.075,33.720],[73.095,33.720],[73.095,33.735],[73.075,33.735],[73.075,33.720]]]}},
    {"type": "Feature", "properties": {"id": "F-7", "name": "F-7", "population": 42000, "income_decile": 8, "elderly_pct": 0.10, "category": "residential_affluent"}, "geometry": {"type": "Polygon", "coordinates": [[[73.055,33.720],[73.075,33.720],[73.075,33.735],[73.055,33.735],[73.055,33.720]]]}},
    {"type": "Feature", "properties": {"id": "F-7-katchi", "name": "F-7 katchi abadi", "population": 8500, "income_decile": 2, "elderly_pct": 0.18, "category": "informal_settlement"}, "geometry": {"type": "Polygon", "coordinates": [[[73.058,33.717],[73.065,33.717],[73.065,33.721],[73.058,33.721],[73.058,33.717]]]}},
    {"type": "Feature", "properties": {"id": "F-8", "name": "F-8", "population": 45000, "income_decile": 7, "elderly_pct": 0.12, "category": "residential"}, "geometry": {"type": "Polygon", "coordinates": [[[73.035,33.720],[73.055,33.720],[73.055,33.735],[73.035,33.735],[73.035,33.720]]]}},
    {"type": "Feature", "properties": {"id": "F-10", "name": "F-10", "population": 52000, "income_decile": 7, "elderly_pct": 0.11, "category": "residential"}, "geometry": {"type": "Polygon", "coordinates": [[[72.995,33.700],[73.020,33.700],[73.020,33.715],[72.995,33.715],[72.995,33.700]]]}},
    {"type": "Feature", "properties": {"id": "F-11", "name": "F-11", "population": 48000, "income_decile": 7, "elderly_pct": 0.10, "category": "residential"}, "geometry": {"type": "Polygon", "coordinates": [[[72.975,33.690],[72.995,33.690],[72.995,33.710],[72.975,33.710],[72.975,33.690]]]}},
    {"type": "Feature", "properties": {"id": "G-6", "name": "G-6", "population": 56000, "income_decile": 6, "elderly_pct": 0.13, "category": "mixed"}, "geometry": {"type": "Polygon", "coordinates": [[[73.075,33.695],[73.095,33.695],[73.095,33.715],[73.075,33.715],[73.075,33.695]]]}},
    {"type": "Feature", "properties": {"id": "G-7", "name": "G-7", "population": 58000, "income_decile": 5, "elderly_pct": 0.14, "category": "mixed"}, "geometry": {"type": "Polygon", "coordinates": [[[73.055,33.695],[73.075,33.695],[73.075,33.715],[73.055,33.715],[73.055,33.695]]]}},
    {"type": "Feature", "properties": {"id": "G-8", "name": "G-8", "population": 60000, "income_decile": 5, "elderly_pct": 0.13, "category": "residential"}, "geometry": {"type": "Polygon", "coordinates": [[[73.035,33.695],[73.055,33.695],[73.055,33.715],[73.035,33.715],[73.035,33.695]]]}},
    {"type": "Feature", "properties": {"id": "G-9", "name": "G-9", "population": 65000, "income_decile": 5, "elderly_pct": 0.13, "category": "residential"}, "geometry": {"type": "Polygon", "coordinates": [[[73.015,33.690],[73.035,33.690],[73.035,33.710],[73.015,33.710],[73.015,33.690]]]}},
    {"type": "Feature", "properties": {"id": "G-10", "name": "G-10", "population": 78000, "income_decile": 5, "elderly_pct": 0.14, "category": "residential"}, "geometry": {"type": "Polygon", "coordinates": [[[72.995,33.685],[73.020,33.685],[73.020,33.705],[72.995,33.705],[72.995,33.685]]]}},
    {"type": "Feature", "properties": {"id": "G-11", "name": "G-11", "population": 72000, "income_decile": 4, "elderly_pct": 0.13, "category": "residential"}, "geometry": {"type": "Polygon", "coordinates": [[[72.975,33.680],[72.995,33.680],[72.995,33.700],[72.975,33.700],[72.975,33.680]]]}},
    {"type": "Feature", "properties": {"id": "G-13", "name": "G-13", "population": 58000, "income_decile": 4, "elderly_pct": 0.12, "category": "residential"}, "geometry": {"type": "Polygon", "coordinates": [[[72.945,33.660],[72.975,33.660],[72.975,33.685],[72.945,33.685],[72.945,33.660]]]}},
    {"type": "Feature", "properties": {"id": "G-14", "name": "G-14", "population": 48000, "income_decile": 3, "elderly_pct": 0.11, "category": "developing"}, "geometry": {"type": "Polygon", "coordinates": [[[72.915,33.640],[72.945,33.640],[72.945,33.665],[72.915,33.665],[72.915,33.640]]]}},
    {"type": "Feature", "properties": {"id": "I-8", "name": "I-8", "population": 55000, "income_decile": 5, "elderly_pct": 0.12, "category": "residential"}, "geometry": {"type": "Polygon", "coordinates": [[[73.035,33.675],[73.055,33.675],[73.055,33.695],[73.035,33.695],[73.035,33.675]]]}},
    {"type": "Feature", "properties": {"id": "I-9", "name": "I-9 (industrial)", "population": 24000, "income_decile": 4, "elderly_pct": 0.08, "category": "industrial"}, "geometry": {"type": "Polygon", "coordinates": [[[73.015,33.670],[73.035,33.670],[73.035,33.690],[73.015,33.690],[73.015,33.670]]]}},
    {"type": "Feature", "properties": {"id": "I-10", "name": "I-10", "population": 62000, "income_decile": 4, "elderly_pct": 0.13, "category": "residential"}, "geometry": {"type": "Polygon", "coordinates": [[[72.995,33.665],[73.015,33.665],[73.015,33.685],[72.995,33.685],[72.995,33.665]]]}},
    {"type": "Feature", "properties": {"id": "I-11", "name": "I-11", "population": 58000, "income_decile": 3, "elderly_pct": 0.13, "category": "residential"}, "geometry": {"type": "Polygon", "coordinates": [[[72.975,33.660],[72.995,33.660],[72.995,33.680],[72.975,33.680],[72.975,33.660]]]}},
    {"type": "Feature", "properties": {"id": "E-7", "name": "E-7", "population": 18000, "income_decile": 9, "elderly_pct": 0.15, "category": "residential_diplomatic"}, "geometry": {"type": "Polygon", "coordinates": [[[73.075,33.735],[73.095,33.735],[73.095,33.750],[73.075,33.750],[73.075,33.735]]]}},
    {"type": "Feature", "properties": {"id": "E-11", "name": "E-11", "population": 68000, "income_decile": 6, "elderly_pct": 0.11, "category": "residential"}, "geometry": {"type": "Polygon", "coordinates": [[[72.965,33.700],[72.990,33.700],[72.990,33.725],[72.965,33.725],[72.965,33.700]]]}},
    {"type": "Feature", "properties": {"id": "Blue-Area", "name": "Blue Area Commercial", "population": 14000, "income_decile": 8, "elderly_pct": 0.07, "category": "commercial"}, "geometry": {"type": "Polygon", "coordinates": [[[73.040,33.715],[73.080,33.715],[73.080,33.725],[73.040,33.725],[73.040,33.715]]]}},
    {"type": "Feature", "properties": {"id": "Bara-Kahu", "name": "Bara Kahu", "population": 95000, "income_decile": 3, "elderly_pct": 0.12, "category": "peri_urban"}, "geometry": {"type": "Polygon", "coordinates": [[[73.140,33.715],[73.180,33.715],[73.180,33.750],[73.140,33.750],[73.140,33.715]]]}},
    {"type": "Feature", "properties": {"id": "Tarnol", "name": "Tarnol", "population": 42000, "income_decile": 3, "elderly_pct": 0.11, "category": "peri_urban"}, "geometry": {"type": "Polygon", "coordinates": [[[72.850,33.640],[72.890,33.640],[72.890,33.675],[72.850,33.675],[72.850,33.640]]]}},
    {"type": "Feature", "properties": {"id": "Rawal-Town", "name": "Rawal Town", "population": 38000, "income_decile": 4, "elderly_pct": 0.12, "category": "peri_urban"}, "geometry": {"type": "Polygon", "coordinates": [[[73.110,33.680],[73.140,33.680],[73.140,33.705],[73.110,33.705],[73.110,33.680]]]}},
    {"type": "Feature", "properties": {"id": "Lok-Virsa", "name": "Lok Virsa / Shakarparian", "population": 5000, "income_decile": 5, "elderly_pct": 0.10, "category": "park_cultural"}, "geometry": {"type": "Polygon", "coordinates": [[[73.060,33.690],[73.080,33.690],[73.080,33.700],[73.060,33.700],[73.060,33.690]]]}},
    {"type": "Feature", "properties": {"id": "Margalla-Town", "name": "Margalla Town", "population": 32000, "income_decile": 4, "elderly_pct": 0.12, "category": "residential"}, "geometry": {"type": "Polygon", "coordinates": [[[72.985,33.645],[73.005,33.645],[73.005,33.665],[72.985,33.665],[72.985,33.645]]]}},
    {"type": "Feature", "properties": {"id": "France-Colony", "name": "France Colony", "population": 6500, "income_decile": 2, "elderly_pct": 0.16, "category": "informal_settlement"}, "geometry": {"type": "Polygon", "coordinates": [[[73.080,33.717],[73.084,33.717],[73.084,33.721],[73.080,33.721],[73.080,33.717]]]}},
    {"type": "Feature", "properties": {"id": "100-Quarters", "name": "100 Quarters", "population": 4500, "income_decile": 2, "elderly_pct": 0.17, "category": "informal_settlement"}, "geometry": {"type": "Polygon", "coordinates": [[[73.062,33.700],[73.066,33.700],[73.066,33.704],[73.062,33.704],[73.062,33.700]]]}},
    {"type": "Feature", "properties": {"id": "Diplomatic-Enclave", "name": "Diplomatic Enclave", "population": 4000, "income_decile": 10, "elderly_pct": 0.08, "category": "secure_zone"}, "geometry": {"type": "Polygon", "coordinates": [[[73.090,33.720],[73.110,33.720],[73.110,33.735],[73.090,33.735],[73.090,33.720]]]}},
    {"type": "Feature", "properties": {"id": "Sector-D-12", "name": "D-12", "population": 22000, "income_decile": 6, "elderly_pct": 0.11, "category": "developing"}, "geometry": {"type": "Polygon", "coordinates": [[[72.940,33.715],[72.965,33.715],[72.965,33.740],[72.940,33.740],[72.940,33.715]]]}},
    {"type": "Feature", "properties": {"id": "B-17", "name": "B-17 (Multi Gardens)", "population": 65000, "income_decile": 5, "elderly_pct": 0.11, "category": "residential"}, "geometry": {"type": "Polygon", "coordinates": [[[72.820,33.620],[72.860,33.620],[72.860,33.655],[72.820,33.655],[72.820,33.620]]]}}
  ]
}
